ID,school_name,cert,location,type,fees,Latitude,Longitude,fees_normalized,Latitude_normalized,Longitude_normalized
1,International Public School Rawdat El obour,2,Al Obour,0,15460,30.2288224,31.465685617766244,-0.5891522121113861,0.0902777956744871,0.6373931242197846
2,Westcliff International School,0,Al Maryoutia,1,57867,30.0426329,31.124639,0.3327110444852291,-0.2993101971609496,0.0600495243436193
3,King's School The Crown,2,October,1,253000,31.08086685,29.724904831435097,4.574603723747317,1.8731188639521203,-2.3095020901597803
4,Green Hills College,0,Mokattam,1,63000,30.0163466,31.2804433,0.4442946060696474,-0.3543123689057108,0.3238041278267177
5,Talae Al Amal Language School,0,New Heliopolis,1,18000,31.124639,31.6925603,-0.5339365007487479,1.9647089056064104,1.0214598146315192
6,Belvedere School Cairo,0,Badr City,1,143333,30.5726337,30.70326411716084,2.190611039492806,0.8096779459576311,-0.6532784463284121
7,Seeds British School,2,New Capital,1,87285,29.95213615,31.71293543787288,0.9722133267159748,-0.4886680674524036,1.0559520360308874
8,Golden Modern School,0,New Heliopolis,1,36600,31.124639,31.6925603,-0.1296009765971444,1.9647089056064104,1.0214598146315192
9,Egypt Integrated Language School,0,Nasr City,0,11000,30.0521177,31.3422045,-0.6861057840316094,-0.2794639427027482,0.4283570882818516
10,Egypt Integrated Language School- Eils El Zaitoun,0,Hada'iq al-Zaytun,0,11000,30.107946432630147,31.311177992306487,-0.6861057840316094,-0.1626463784044102,0.3758336070032986
11,Citadel International School,2,Zahraa al Maadi,1,42000,29.96051175,31.32331893333732,-0.012213243778937,-0.4711427333557288,0.3963864998791616
12,Futures Tech October,0,October,1,31000,31.08086685,29.724904831435097,-0.2513364032234337,1.8731188639521203,-2.3095020901597803
13,Baron Language School,0,Mokattam,1,26750,30.0163466,31.2804433,-0.343724896645171,-0.3543123689057108,0.3238041278267177
14,Manhattan Elite International School,1,Zahraa al Maadi,1,60000,29.96051175,31.32331893333732,0.379079198948421,-0.4711427333557288,0.3963864998791616
15,Moon Gardens International School,0,Cairo-Ismailia Desert Road,1,36000,30.1490863,31.4249067,-0.1426440580213897,-0.0765641967876298,0.5683601945387355
16,Cadmus International School,2,El Shorouk,1,99520,30.11952805,31.60687795516707,1.238183495425376,-0.138412686037714,0.8764117454388799
17,The American School of Egypt,1,Sheikh Zayed,1,120000,30.056131850653067,30.972691160621636,1.683387341372948,-0.2710646242886201,-0.1971766377414677
18,Palm International School,1,Nasr City,1,67000,30.0521177,31.3422045,0.5312484822312825,-0.2794639427027482,0.4283570882818516
19,Nordic School In Cairo,2,Sheikh Zayed,1,84000,30.056131850653067,30.972691160621636,0.9008024559182318,-0.2710646242886201,-0.1971766377414677
20,Nasr Language Schools,0,Faisal,1,18000,30.018819286056782,31.32421818804972,-0.5339365007487479,-0.3491384530953423,0.3979088106889377
21,Rawdat Misr School,0,Shubra Masr,1,7000,30.2005981,31.3290642,-0.7730596601932445,0.0312204998216889,0.4061124222736038
22,Kayan College,0,The 1st Settlement,1,93000,30.0645714,31.447989244439903,1.0964486772819109,-0.2534054808325888,0.6074356716348563
23,Brighton British School,2,El Shorouk,1,88000,30.11952805,31.60687795516707,0.987756332079867,-0.138412686037714,0.8764117454388799
24,Mastery International School,0,Mokattam,1,54600,30.0163466,31.2804433,0.2616914661302136,-0.3543123689057108,0.3238041278267177
25,International Public School Rod Elfarag,2,Rod El Farag,0,15460,30.0732299,31.2363328,-0.5891522121113861,-0.2352881990526454,0.2491313014866132
26,Asten College,2,Nasr City,1,134000,30.0521177,31.3422045,1.987725907938671,-0.2794639427027482,0.4283570882818516
27,Westview International Language School,0,October,0,36733,31.08086685,29.724904831435097,-0.1267097602147701,1.8731188639521203,-2.3095020901597803
28,Scholars International Language School,0,October,0,36733,31.08086685,29.724904831435097,-0.1267097602147701,1.8731188639521203,-2.3095020901597803
29,The British School in Cairo,2,Maadi,1,75300,29.95891452548896,31.2605343965376,0.7116777752666754,-0.4744848095273931,0.2901011752220159
30,Elite Language School,0,October,1,39500,31.08086685,29.724904831435097,-0.066559416379959,1.8731188639521203,-2.3095020901597803
31,Dar Al Maaref Language School,0,Faisal,1,19000,30.018819286056782,31.32421818804972,-0.5121980317083391,-0.3491384530953423,0.3979088106889377
32,Oakland College Egypt,0,October,1,86600,31.08086685,29.724904831435097,0.9573224754232948,1.8731188639521203,-2.3095020901597803
33,Regent British School West,2,October,1,68000,31.08086685,29.724904831435097,0.5529869512716913,1.8731188639521203,-2.3095020901597803
34,Kaizen Language School,0,El Haram,1,23400,29.850964,31.22094695,-0.4165487679305404,-0.7003634361458457,0.2230852375076301
35,Norwich International College,0,Sheikh Zayed,0,45000,30.056131850653067,30.972691160621636,0.0530021633422892,-0.2710646242886201,-0.1971766377414677
36,Core West College,0,Sheikh Zayed,0,53000,30.056131850653067,30.972691160621636,0.2269099156655595,-0.2710646242886201,-0.1971766377414677
37,The Egyptian Language School Elsherouk,2,El Shorouk,1,75000,30.11952805,31.60687795516707,0.7051562345545528,-0.138412686037714,0.8764117454388799
38,Mount International School Community,2,New Capital,1,98000,29.95213615,31.71293543787288,1.2051410224839547,-0.4886680674524036,1.0559520360308874
39,Sahara International School New Capital,2,New Capital,1,105600,29.95213615,31.71293543787288,1.3703533871910616,-0.4886680674524036,1.0559520360308874
40,Saint Joseph School,0,Hada'iq Al Ahram,1,37000,29.96909,31.0973093,-0.1209055889809809,-0.4531933688666444,0.0137842146775081
41,International Public School 5th Settlement,2,The 5th Settlement,0,15460,30.00380455,31.424935726802204,-0.5891522121113861,-0.3805556967278593,0.5684093328019629
42,Saxony International School,2,October,1,130000,31.08086685,29.724904831435097,1.900772031777036,1.8731188639521203,-2.3095020901597803
43,Nefertari International School October,0,October,0,88252,31.08086685,29.724904831435097,0.99323442627805,1.8731188639521203,-2.3095020901597803
44,Open Sky International School,0,Heliopolis,1,152000,30.0901239,31.326542634536956,2.379018350666029,-0.1999387322408102,0.4018437692334563
45,Cairo English School,0,The 1st Settlement,1,124600,30.0645714,31.447989244439903,1.7833842989588284,-0.2534054808325888,0.6074356716348563
46,Qawmia Language School,0,Agouza,1,8140,30.0549435,31.2127281,-0.7482778054871785,-0.2735511616374657,0.209171889013162
47,عظم 6,0,Salam City,1,2694,30.17479935,31.4091625423734,-0.8666655078812447,-0.0227615089927893,0.541707566517692
48,Nefertari Deutsche Internationale Schule,2,Cairo-Ismailia Desert Road,1,87000,30.1490863,31.4249067,0.9660178630394582,-0.0765641967876298,0.5683601945387355
49,International Public School El-Mokattam,2,Mokattam,0,15460,30.0163466,31.2804433,-0.5891522121113861,-0.3543123689057108,0.3238041278267177
50,Lycée Français International Simone de Beauvoir,2,Cairo-Ismailia Desert Road,1,90000,30.1490863,31.4249067,1.0312332701606846,-0.0765641967876298,0.5683601945387355
51,Smart Village Schools (SVS),2,October,1,113673,31.08086685,29.724904831435097,1.5458480477542818,1.8731188639521203,-2.3095020901597803
52,Green Land International School,2,Bashtil,1,57500,30.09156495,31.18225195316393,0.3247330263473991,-0.1969234398796712,0.1575800906838546
53,Beverly Hills English Language School,0,Sheikh Zayed,1,24000,30.056131850653067,30.972691160621636,-0.4035056865062951,-0.2710646242886201,-0.1971766377414677
54,American School Beverly Hills Cairo,1,Sheikh Zayed,1,48000,30.056131850653067,30.972691160621636,0.1182175704635156,-0.2710646242886201,-0.1971766377414677
55,Deutsche Schule Beverly Hills Kairo,2,Sheikh Zayed,1,48000,30.056131850653067,30.972691160621636,0.1182175704635156,-0.2710646242886201,-0.1971766377414677
56,GPIS,2,Sheikh Zayed,1,143000,30.056131850653067,30.972691160621636,2.18337212930235,-0.2710646242886201,-0.1971766377414677
57,Al Hoda Azhar Language Schools,0,October,1,44000,31.08086685,29.724904831435097,0.0312636943018805,1.8731188639521203,-2.3095020901597803
58,Alhoda International School,2,October,1,89000,31.08086685,29.724904831435097,1.0094948011202758,1.8731188639521203,-2.3095020901597803
59,Creative International School,0,Imbaba,0,16000,30.088512,31.215927,-0.5774134388295654,-0.2033115158062184,0.2145871734506411
60,Cairo International Schools Nasr City,0,Nasr City,1,26000,30.0521177,31.3422045,-0.3600287484254776,-0.2794639427027482,0.4283570882818516
61,St. Fatima Language School Nasr City,0,Nasr City,0,25695,30.0521177,31.3422045,-0.3666589814828023,-0.2794639427027482,0.4283570882818516
62,Futures British School,2,Nasr City,1,56145,30.0521177,31.3422045,0.2952774007976452,-0.2794639427027482,0.4283570882818516
63,AlRaya Language School,0,Nasr City,1,20500,30.0521177,31.3422045,-0.4795903281477259,-0.2794639427027482,0.4283570882818516
64,Cleopatra Language School,0,Heliopolis,1,8200,30.0901239,31.326542634536956,-0.7469734973447539,-0.1999387322408102,0.4018437692334563
65,Patriarchal college co-educational School,0,Heliopolis,1,8350,30.0901239,31.326542634536956,-0.7437127269886926,-0.1999387322408102,0.4018437692334563
66,St.George's College Heliopolis,0,Heliopolis,1,16000,30.0901239,31.326542634536956,-0.5774134388295654,-0.1999387322408102,0.4018437692334563
67,Horus Language School,0,Nasr City,1,34335,30.0521177,31.3422045,-0.1788386089736703,-0.2794639427027482,0.4283570882818516
68,Manaret Heliopolis International School,0,Nasr City,1,85000,30.0521177,31.3422045,0.9225409249586406,-0.2794639427027482,0.4283570882818516
69,El Rowad Language School,0,Nasr City,0,22000,30.0521177,31.3422045,-0.4469826245871127,-0.2794639427027482,0.4283570882818516
70,Roots School,0,Nasr City,0,42000,30.0521177,31.3422045,-0.012213243778937,-0.2794639427027482,0.4283570882818516
71,Harvard Egypt College (HEC),0,Nasr City,0,26500,30.0521177,31.3422045,-0.3491595139052732,-0.2794639427027482,0.4283570882818516
72,Rahn Schulen Kairo,0,Nasr City,1,87930,30.0521177,31.3422045,0.9862346392470384,-0.2794639427027482,0.4283570882818516
73,Al Kamal Azharian Language Institutes,0,The 5th Settlement,1,22400,30.00380455,31.424935726802204,-0.4382872369709492,-0.3805556967278593,0.5684093328019629
74,Alghad Al-Moshreq Azharian Institute,0,The 5th Settlement,1,25000,30.00380455,31.424935726802204,-0.3817672174658864,-0.3805556967278593,0.5684093328019629
75,Albukhary Azharian Language Institutes,0,The 5th Settlement,1,23500,30.00380455,31.424935726802204,-0.4143749210264995,-0.3805556967278593,0.5684093328019629
76,New Manor House School October,0,October,1,22622,31.08086685,29.724904831435097,-0.4334612968439784,1.8731188639521203,-2.3095020901597803
77,Manor House School Dokki,0,Dokki,0,56000,30.038186465234222,31.21081926315397,0.2921253227867859,-0.3086140386540168,0.2059404987021192
78,El Nasr School,0,Heliopolis,0,15116,30.0901239,31.326542634536956,-0.5966302454612868,-0.1999387322408102,0.4018437692334563
79,L'Ecole de l'Avenir,0,Al Rehab,0,34500,27.2599794,31.346871748275863,-0.1752517615820029,-6.121810347929483,0.4362580782953303
80,Manor House International Schools,0,The 5th Settlement,0,28650,30.00380455,31.424935726802204,-0.3024218054683943,-0.3805556967278593,0.5684093328019629
81,AlAndalus International School,1,The 1st Settlement,1,58000,30.0645714,31.447989244439903,0.3356022608676035,-0.2534054808325888,0.6074356716348563
82,Akhnaton School,0,The 5th Settlement,0,37500,30.00380455,31.424935726802204,-0.1100363544607765,-0.3805556967278593,0.5684093328019629
83,Dr.Nermien Ismail Schools Shorouk City,0,El Shorouk,1,101200,30.11952805,31.60687795516707,1.274704123413263,-0.138412686037714,0.8764117454388799
84,st.peter's school,0,Heliopolis,0,14000,30.0901239,31.326542634536956,-0.620890376910383,-0.1999387322408102,0.4018437692334563
85,Dr.Nermien Ismail Schools Nacr City,0,Nasr City,0,52800,30.0521177,31.3422045,0.2225622218574778,-0.2794639427027482,0.4283570882818516
86,Egyptian Language School Kattameya,0,Katameya,0,62000,29.9874449,31.5102943234146,0.4225561370292386,-0.4147870750117564,0.7129093421301738
87,Nile International College,2,The 5th Settlement,1,77986,30.00380455,31.424935726802204,0.7700673031092135,-0.3805556967278593,0.5684093328019629
88,Dr.Nermien Ismail Schools New Cairo,0,The 1st Settlement,0,53200,30.0645714,31.447989244439903,0.2312576094736413,-0.2534054808325888,0.6074356716348563
89,Europa Schule Kairo,2,The 5th Settlement,1,105740,30.00380455,31.424935726802204,1.373396772856719,-0.3805556967278593,0.5684093328019629
90,Salahaldin International School,1,The 5th Settlement,1,120000,30.00380455,31.424935726802204,1.683387341372948,-0.3805556967278593,0.5684093328019629
91,Bedayia International School,0,The 1st Settlement,1,105000,30.0645714,31.447989244439903,1.3573103057668163,-0.2534054808325888,0.6074356716348563
92,Capital International School October,1,October,1,65000,31.08086685,29.724904831435097,0.487771544150465,1.8731188639521203,-2.3095020901597803
93,Merryland International School,2,The 1st Settlement,1,90500,30.0645714,31.447989244439903,1.042102504680889,-0.2534054808325888,0.6074356716348563
94,Al Mokhtar Language School,0,Helwan,1,20000,29.8500001,31.333333,-0.4904595626679303,-0.7023803268206342,0.4133388958134753
95,Mokatam International Language School,0,Mokattam,0,12000,30.0163466,31.2804433,-0.6643673149912006,-0.3543123689057108,0.3238041278267177
96,Royal Pyramids Language School,0,Hada'iq Al Ahram,1,20000,29.96909,31.0973093,-0.4904595626679303,-0.4531933688666444,0.0137842146775081
97,Queen Language School,0,El Shorouk,1,17000,30.11952805,31.60687795516707,-0.5556749697891566,-0.138412686037714,0.8764117454388799
98,International Modern School Sayed Galal,0,El Shorouk,1,50000,30.11952805,31.60687795516707,0.1616945085443332,-0.138412686037714,0.8764117454388799
99,Thebes Advanced School (TAS),0,Cairo-Ismailia Desert Road,1,33500,30.1490863,31.4249067,-0.1969902306224117,-0.0765641967876298,0.5683601945387355
100,Integrated Thebes Language School,0,Cairo-Ismailia Desert Road,1,25000,30.1490863,31.4249067,-0.3817672174658864,-0.0765641967876298,0.5683601945387355
101,Integrated Thebes American College in Cairo,1,Cairo-Ismailia Desert Road,1,56350,30.1490863,31.4249067,0.299733786950929,-0.0765641967876298,0.5683601945387355
102,Saint Mary Language School,0,Helwan,1,6000,29.8500001,31.333333,-0.7947981292336532,-0.7023803268206342,0.4133388958134753
103,Zohour May Language School,0,Helwan,1,13700,29.8500001,31.333333,-0.6274119176225056,-0.7023803268206342,0.4133388958134753
104,Gheriany International Schools,0,El Shorouk,0,47700,30.11952805,31.60687795516707,0.111696029751393,-0.138412686037714,0.8764117454388799
105,AlAlson Azhari Language Schools,0,Al Maryoutia,1,19500,30.0426329,31.124639,-0.5013287971881347,-0.2993101971609496,0.0600495243436193
106,Degla Valley Language School,0,Maadi,1,16100,29.95891452548896,31.2605343965376,-0.5752395919255245,-0.4744848095273931,0.2901011752220159
107,Pyramids Language School,0,Al Maryoutia,0,19400,30.0426329,31.124639,-0.5035026440921756,-0.2993101971609496,0.0600495243436193
108,Zohour El Yasmeen Language School,0,Maadi,1,16000,29.95891452548896,31.2605343965376,-0.5774134388295654,-0.4744848095273931,0.2901011752220159
109,AL Othman Schools Alharam,0,El Haram,1,12500,29.850964,31.22094695,-0.6534980804709962,-0.7003634361458457,0.2230852375076301
110,American City International School October,1,October,1,70000,31.08086685,29.724904831435097,0.5964638893525088,1.8731188639521203,-2.3095020901597803
111,Agyad Al Azhari Language School,0,Maadi,1,27500,29.95891452548896,31.2605343965376,-0.3274210448648644,-0.4744848095273931,0.2901011752220159
112,El Massa Language School,0,Salam City,1,13000,30.17479935,31.4091625423734,-0.6426288459507917,-0.0227615089927893,0.541707566517692
113,City International Schools Zamalek,0,Zamalek,1,65000,29.9289553,30.934665072489047,0.487771544150465,-0.5371723108373451,-0.2615494169101001
114,Thebes El-Maadi Language School,0,Maadi,0,23000,29.95891452548896,31.2605343965376,-0.425244155546704,-0.4744848095273931,0.2901011752220159
115,Knowledge Valley School,2,Kerdasa,1,78000,30.03142255,31.115599860932907,0.7703716416757791,-0.3227670395472408,0.0447475426879827
116,Noor Language School,0,Maadi,1,18000,29.95891452548896,31.2605343965376,-0.5339365007487479,-0.4744848095273931,0.2901011752220159
117,Sakkara Language School Maadi,0,Maadi,0,30000,29.95891452548896,31.2605343965376,-0.2730748722638424,-0.4744848095273931,0.2901011752220159
118,Modern American School of Egypt,1,The 5th Settlement,1,85000,30.00380455,31.424935726802204,0.9225409249586406,-0.3805556967278593,0.5684093328019629
119,Al Bashaer International School,0,Maadi,1,67000,29.95891452548896,31.2605343965376,0.5312484822312825,-0.4744848095273931,0.2901011752220159
120,Saint Mary Elias International School For Girls,0,Maadi,0,27000,29.95891452548896,31.2605343965376,-0.3382902793850688,-0.4744848095273931,0.2901011752220159
121,Privilege Language School,0,Maadi,1,38500,29.95891452548896,31.2605343965376,-0.0882978854203678,-0.4744848095273931,0.2901011752220159
122,Future Rise Language School,0,Maadi,1,36500,29.95891452548896,31.2605343965376,-0.1317748235011853,-0.4744848095273931,0.2901011752220159
123,Orouba Language School Maadi,0,Maadi,0,35540,29.95891452548896,31.2605343965376,-0.1526437537799778,-0.4744848095273931,0.2901011752220159
124,Victory College Maadi,0,Maadi,1,12550,29.95891452548896,31.2605343965376,-0.6524111570189758,-0.4744848095273931,0.2901011752220159
125,Summits International Schools,0,Maadi,1,65000,29.95891452548896,31.2605343965376,0.487771544150465,-0.4744848095273931,0.2901011752220159
126,New Discovery International School,0,Al Maryoutia,1,49000,30.0426329,31.124639,0.1399560395039244,-0.2993101971609496,0.0600495243436193
127,Royal House Language School,0,El Haram,1,24109,29.850964,31.22094695,-0.4011361933808906,-0.7003634361458457,0.2230852375076301
128,Notion International School,2,Al Maryoutia,1,42000,30.0426329,31.124639,-0.012213243778937,-0.2993101971609496,0.0600495243436193
129,Elwy Languages Schools,0,Al Maryoutia,0,15500,30.0426329,31.124639,-0.5882826733497698,-0.2993101971609496,0.0600495243436193
130,Future Pioneers Language Schools,0,Hada'iq Al Ahram,0,24798,29.96909,31.0973093,-0.3861583882120489,-0.4531933688666444,0.0137842146775081
131,Hossam El Deen Private School,0,Faisal,1,9500,30.018819286056782,31.32421818804972,-0.7187134875922225,-0.3491384530953423,0.3979088106889377
132,Capital Language School,0,Hada'iq Al Ahram,0,32000,29.96909,31.0973093,-0.2295979341830249,-0.4531933688666444,0.0137842146775081
133,Narmer Language School Dokki,0,Dokki,0,15000,30.038186465234222,31.21081926315397,-0.5991519078699742,-0.3086140386540168,0.2059404987021192
134,Al Ahram Modern School -AMS,0,Hada'iq Al Ahram,1,31250,29.96909,31.0973093,-0.2459017859633314,-0.4531933688666444,0.0137842146775081
135,Egyptian Language School October,0,October,0,58000,31.08086685,29.724904831435097,0.3356022608676035,1.8731188639521203,-2.3095020901597803
136,La Rose De Lisieux Schools,0,Dokki,1,15000,30.038186465234222,31.21081926315397,-0.5991519078699742,-0.3086140386540168,0.2059404987021192
137,Glories language school,0,Sheikh Zayed,1,36050,30.056131850653067,30.972691160621636,-0.1415571345693693,-0.2710646242886201,-0.1971766377414677
138,Ramsis language school,0,Dokki,0,9000,30.038186465234222,31.21081926315397,-0.7295827221124269,-0.3086140386540168,0.2059404987021192
139,Child Home Language School,0,Dokki,1,11000,30.038186465234222,31.21081926315397,-0.6861057840316094,-0.3086140386540168,0.2059404987021192
140,Brilliance International School,0,October,0,26600,31.08086685,29.724904831435097,-0.3469856670012323,1.8731188639521203,-2.3095020901597803
141,Lycee El-Horreya,0,Heliopolis,1,11646,30.0901239,31.326542634536956,-0.6720627330315053,-0.1999387322408102,0.4018437692334563
142,Safwa Egyptian Language School,0,Mokattam,1,26500,30.0163466,31.2804433,-0.3491595139052732,-0.3543123689057108,0.3238041278267177
143,Modern Infinity School,0,Sheikh Zayed,1,27475,30.056131850653067,30.972691160621636,-0.3279645065908746,-0.2710646242886201,-0.1971766377414677
144,Ethos International School,2,Sheikh Zayed,1,103000,30.056131850653067,30.972691160621636,1.3138333676859988,-0.2710646242886201,-0.1971766377414677
145,Maharat S.U.P.E.R. Global British School of Egypt,2,Sheikh Zayed,1,70800,30.056131850653067,30.972691160621636,0.613854664584836,-0.2710646242886201,-0.1971766377414677
146,Manarat El Mostaqbal language school,0,Mokattam,1,19000,30.0163466,31.2804433,-0.5121980317083391,-0.3543123689057108,0.3238041278267177
147,Windrose Academy,2,Katameya,1,83000,29.9874449,31.5102943234146,0.8790639868778231,-0.4147870750117564,0.7129093421301738
148,Jana Dan International School,1,Katameya,1,61500,29.9874449,31.5102943234146,0.4116869025090342,-0.4147870750117564,0.7129093421301738
149,Sama International School,0,Mokattam,0,27300,30.0163466,31.2804433,-0.3317687386729461,-0.3543123689057108,0.3238041278267177
150,Al Karma Language School,0,Katameya,0,27000,29.9874449,31.5102943234146,-0.3382902793850688,-0.4147870750117564,0.7129093421301738
151,Al Alson language school,0,Nasr City,1,19240,30.0521177,31.3422045,-0.506980799138641,-0.2794639427027482,0.4283570882818516
152,Leaders International College,0,The 5th Settlement,1,98000,30.00380455,31.424935726802204,1.2051410224839547,-0.3805556967278593,0.5684093328019629
153,Cambridge Egypt Integrated Schools,0,Nasr City,0,30000,30.0521177,31.3422045,-0.2730748722638424,-0.2794639427027482,0.4283570882818516
154,Egyptian Pioneer Schools languages,0,October,1,23000,31.08086685,29.724904831435097,-0.425244155546704,1.8731188639521203,-2.3095020901597803
155,Smart Vision School,0,October,0,38000,31.08086685,29.724904831435097,-0.0991671199405721,1.8731188639521203,-2.3095020901597803
156,Pakistan International School Cairo,2,Zamalek,1,76930,29.9289553,30.934665072489047,0.7471114798025418,-0.5371723108373451,-0.2615494169101001
157,Heritage International School,1,October,1,150150,31.08086685,29.724904831435097,2.338802182941273,1.8731188639521203,-2.3095020901597803
158,Madinaty Integrated Language Schools,0,Madinty,1,32103,30.09173685,31.638060827436064,-0.2273588718718628,-0.1965637516267481,0.9291999297879128
159,Madinaty Language School,0,Madinty,1,29123,30.09173685,31.638060827436064,-0.2921395096122809,-0.1965637516267481,0.9291999297879128
160,Lycée Francais du Caire,2,Maadi,1,230508,29.95891452548896,31.2605343965376,4.085662078090442,-0.4744848095273931,0.2901011752220159
161,Concordia Lycée International Français en Egypte,2,The 5th Settlement,1,120000,30.00380455,31.424935726802204,1.683387341372948,-0.3805556967278593,0.5684093328019629
162,Lycée Albert Camus,2,October,1,152500,31.08086685,29.724904831435097,2.3898875851862336,1.8731188639521203,-2.3095020901597803
163,Aspire International School,2,The 1st Settlement,1,108000,30.0645714,31.447989244439903,1.4225257128880426,-0.2534054808325888,0.6074356716348563
164,Dome International School,1,October,1,63250,31.08086685,29.724904831435097,0.4497292233297496,1.8731188639521203,-2.3095020901597803
165,Blue Nile Language School,0,Al Maryoutia,1,14000,30.0426329,31.124639,-0.620890376910383,-0.2993101971609496,0.0600495243436193
166,مدرسة جينيس الامريكية,0,Faisal,0,19750,30.018819286056782,31.32421818804972,-0.4958941799280325,-0.3491384530953423,0.3979088106889377
167,Green City language School,0,North Giza,1,32000,29.9401222,31.151556,-0.2295979341830249,-0.5138063844172452,0.1056161913865357
168,NewCastle International School (NCS),0,October,0,78260,31.08086685,29.724904831435097,0.7760236436262854,1.8731188639521203,-2.3095020901597803
169,Majesty International Schools,0,Sheikh Zayed,1,94500,30.056131850653067,30.972691160621636,1.129056380842524,-0.2710646242886201,-0.1971766377414677
170,Al-Farabi Language School,0,New Cairo,1,31500,30.0277688,31.4756825,-0.2404671687032293,-0.3304122457958376,0.6543164293508484
171,Hotep International School,1,Cairo-Ismailia Desert Road,1,50000,30.1490863,31.4249067,0.1616945085443332,-0.0765641967876298,0.5683601945387355
172,Royal College International School,0,The 5th Settlement,1,97000,30.00380455,31.424935726802204,1.183402553443546,-0.3805556967278593,0.5684093328019629
173,Skyline Language School,0,October,1,19760,31.08086685,29.724904831435097,-0.4956767952376284,1.8731188639521203,-2.3095020901597803
174,Continental Palace School,0,Hada'iq Al Ahram,1,36570,29.96909,31.0973093,-0.1302531306683567,-0.4531933688666444,0.0137842146775081
175,Dream International Schools,0,October,0,28200,31.08086685,29.724904831435097,-0.3122041165365782,1.8731188639521203,-2.3095020901597803
176,Spatiss Modern Academy,0,Hada'iq Al Ahram,1,18000,29.96909,31.0973093,-0.5339365007487479,-0.4531933688666444,0.0137842146775081
177,Cairo Modern International School,1,The 1st Settlement,1,57000,30.0645714,31.447989244439903,0.3138637918271947,-0.2534054808325888,0.6074356716348563
178,Skylight Language School,0,October,1,32340,31.08086685,29.724904831435097,-0.2222068547092859,1.8731188639521203,-2.3095020901597803
179,Al Afak Al Gadeda International School,1,The 1st Settlement,1,65000,30.0645714,31.447989244439903,0.487771544150465,-0.2534054808325888,0.6074356716348563
180,سعاد كفافى الدولية,0,El Haram,0,36300,29.850964,31.22094695,-0.1361225173092671,-0.7003634361458457,0.2230852375076301
181,Prime International School,1,The 5th Settlement,1,69350,30.00380455,31.424935726802204,0.5823338844762431,-0.3805556967278593,0.5684093328019629
182,Green Heights Language School,0,The 1st Settlement,1,45000,30.0645714,31.447989244439903,0.0530021633422892,-0.2534054808325888,0.6074356716348563
183,Princeton International School,0,The 5th Settlement,1,72503,30.00380455,31.424935726802204,0.6508752773606521,-0.3805556967278593,0.5684093328019629
184,Green Heights International School,0,The 1st Settlement,1,77000,30.0645714,31.447989244439903,0.7486331726353703,-0.2534054808325888,0.6074356716348563
185,Bady language school,0,El Haram,1,22000,29.850964,31.22094695,-0.4469826245871127,-0.7003634361458457,0.2230852375076301
186,New Horizon International School,0,Zahraa al Maadi,0,55000,29.96051175,31.32331893333732,0.2703868537463771,-0.4711427333557288,0.3963864998791616
187,Cardiff Modern School,2,Badr City,1,34000,30.5726337,30.70326411716084,-0.1861209961022073,0.8096779459576311,-0.6532784463284121
188,British Ramses School,2,Katameya,1,72000,29.9874449,31.5102943234146,0.6399408274333265,-0.4147870750117564,0.7129093421301738
189,British Modern School,2,Badr City,1,47000,30.5726337,30.70326411716084,0.0964791014231068,0.8096779459576311,-0.6532784463284121
190,British International Modern School,2,Zahraa al Maadi,1,37500,29.96051175,31.32331893333732,-0.1100363544607765,-0.4711427333557288,0.3963864998791616
191,Batran Language School,0,El Haram,1,16500,29.850964,31.22094695,-0.566544204309361,-0.7003634361458457,0.2230852375076301
192,The International Schools of Kenana,0,Cairo-Ismailia Desert Road,0,41500,30.1490863,31.4249067,-0.0230824782991414,-0.0765641967876298,0.5683601945387355
193,Genesis International School,0,Cairo-Ismailia Desert Road,0,40000,30.1490863,31.4249067,-0.0556901818597546,-0.0765641967876298,0.5683601945387355
194,École Oasis Internationale,2,Zahraa al Maadi,1,80000,29.96051175,31.32331893333732,0.8138485797565967,-0.4711427333557288,0.3963864998791616
195,Sun of Knowledge British International School,2,Zahraa al Maadi,1,73384,29.96051175,31.32331893333732,0.6700268685852522,-0.4711427333557288,0.3963864998791616
196,New Vision International Schools,0,Sheikh Zayed,1,66411,30.056131850653067,30.972691160621636,0.5184445239664818,-0.2710646242886201,-0.1971766377414677
197,Middle East International Schools,0,Al Maryoutia,0,23950,30.0426329,31.124639,-0.4045926099583156,-0.2993101971609496,0.0600495243436193
198,Capital Gate School,0,The 5th Settlement,1,11000,30.00380455,31.424935726802204,-0.6861057840316094,-0.3805556967278593,0.5684093328019629
199,British Columbia Canadian International School,1,El Shorouk,1,133000,30.11952805,31.60687795516707,1.9659874388982623,-0.138412686037714,0.8764117454388799
200,Evolution International School,2,October,1,145870,31.08086685,29.724904831435097,2.245761535448324,1.8731188639521203,-2.3095020901597803
201,Harrods Language Schools,0,Mokattam,1,30000,30.0163466,31.2804433,-0.2730748722638424,-0.3543123689057108,0.3238041278267177
202,The Egyptian International School (EIS),0,Al Maryoutia,1,11750,30.0426329,31.124639,-0.6698019322513028,-0.2993101971609496,0.0600495243436193
203,Manhattan International Schools,0,Maadi,0,38000,29.95891452548896,31.2605343965376,-0.0991671199405721,-0.4744848095273931,0.2901011752220159
204,Gateway International Montessori School,0,The 5th Settlement,1,116600,30.00380455,31.424935726802204,1.6094765466355585,-0.3805556967278593,0.5684093328019629
205,Egyptian International School Elsheikh Zayed,2,Sheikh Zayed,0,20500,30.056131850653067,30.972691160621636,-0.4795903281477259,-0.2710646242886201,-0.1971766377414677
206,The International School of Choueifat October,0,October,1,93995,31.08086685,29.724904831435097,1.1180784539771176,1.8731188639521203,-2.3095020901597803
207,Dover American International School,1,El Shorouk,1,112028,30.11952805,31.60687795516707,1.5100882661828092,-0.138412686037714,0.8764117454388799
208,Winchester British International School,2,October,1,98000,31.08086685,29.724904831435097,1.2051410224839547,1.8731188639521203,-2.3095020901597803
209,New Capital English Schools,0,New Capital,0,37000,29.95213615,31.71293543787288,-0.1209055889809809,-0.4886680674524036,1.0559520360308874
210,Eastlands International School,2,El Shorouk,1,69882,30.11952805,31.60687795516707,0.5938987500057407,-0.138412686037714,0.8764117454388799
211,Orman College,0,Sheikh Zayed,1,40045,30.056131850653067,30.972691160621636,-0.0547119507529362,-0.2710646242886201,-0.1971766377414677
212,Pearls of Modern School Al-Sherouk,0,El Shorouk,1,24000,30.11952805,31.60687795516707,-0.4035056865062951,-0.138412686037714,0.8764117454388799
213,Smart City Schools,0,Imbaba,0,19500,30.088512,31.215927,-0.5013287971881347,-0.2033115158062184,0.2145871734506411
214,Wise International School,0,Sheikh Zayed,0,48000,30.056131850653067,30.972691160621636,0.1182175704635156,-0.2710646242886201,-0.1971766377414677
215,Mavericks School Kattameya Campus,1,Katameya,1,56500,29.9874449,31.5102943234146,0.3029945573069903,-0.4147870750117564,0.7129093421301738
216,Mavericks School October Campus,2,October,1,63280,31.08086685,29.724904831435097,0.4503813774009618,1.8731188639521203,-2.3095020901597803
217,The British International School in Cairo,0,October,1,523442,31.08086685,29.724904831435097,10.45359876797355,1.8731188639521203,-2.3095020901597803
218,Alwaha Schools,0,El Haram,0,36640,29.850964,31.22094695,-0.1287314378355281,-0.7003634361458457,0.2230852375076301
219,Modern Education Schools,0,The 5th Settlement,0,47000,30.00380455,31.424935726802204,0.0964791014231068,-0.3805556967278593,0.5684093328019629
220,Global Paradigm International School,1,Future City,1,106000,30.04076775,30.982470847844823,1.379048774807225,-0.3032128879401675,-0.1806210129882277
221,Gulf English School Cairo,2,The 5th Settlement,1,73430,30.00380455,31.424935726802204,0.671026838161111,-0.3805556967278593,0.5684093328019629
222,The International School of Elite Education,0,The 5th Settlement,1,91300,30.00380455,31.424935726802204,1.059493279913216,-0.3805556967278593,0.5684093328019629
223,Narmer American College,0,The 5th Settlement,1,97000,30.00380455,31.424935726802204,1.183402553443546,-0.3805556967278593,0.5684093328019629
224,The British School Al Rehab,2,Al Rehab,1,104590,27.2599794,31.346871748275863,1.3483975334602487,-6.121810347929483,0.4362580782953303
225,The British School of Egypt,2,Sheikh Zayed,1,107907,30.056131850653067,30.972691160621636,1.4205040352672846,-0.2710646242886201,-0.1971766377414677
226,Egypt British International School,2,The 5th Settlement,1,120000,30.00380455,31.424935726802204,1.683387341372948,-0.3805556967278593,0.5684093328019629
227,Deutsche Schule der Borromäerinnen in Kairo,2,Bab El Luq,1,90200,30.0458315,31.239586,1.0355809639687663,-0.2926173591981081,0.2546385081301468
228,Capital International Schools,0,The 5th Settlement,1,123000,30.00380455,31.424935726802204,1.7486027484941744,-0.3805556967278593,0.5684093328019629
229,El Alsson School NewGiza,0,October,1,161750,31.08086685,29.724904831435097,2.590968423810015,1.8731188639521203,-2.3095020901597803
230,New Cairo British International School,0,The 5th Settlement,1,147647,30.00380455,31.424935726802204,2.2843907949331297,-0.3805556967278593,0.5684093328019629
231,Canadian International School of Egypt,1,The 5th Settlement,1,145000,30.00380455,31.424935726802204,2.226849067383168,-0.3805556967278593,0.5684093328019629
232,British International College of Cairo,2,The 5th Settlement,1,115000,30.00380455,31.424935726802204,1.574694996170904,-0.3805556967278593,0.5684093328019629
233,Lycée International Balzac,2,The 5th Settlement,1,77000,30.00380455,31.424935726802204,0.7486331726353703,-0.3805556967278593,0.5684093328019629
234,Metropolitan School,1,The 5th Settlement,1,115000,30.00380455,31.424935726802204,1.574694996170904,-0.3805556967278593,0.5684093328019629
235,Marvel International School,2,Sheikh Zayed,1,89000,30.056131850653067,30.972691160621636,1.0094948011202758,-0.2710646242886201,-0.1971766377414677
236,Hayah International Academy,0,The 5th Settlement,1,152000,30.00380455,31.424935726802204,2.379018350666029,-0.3805556967278593,0.5684093328019629
237,Manchester International School,2,The 1st Settlement,1,94200,30.0645714,31.447989244439903,1.1225348401304014,-0.2534054808325888,0.6074356716348563
238,Cairo American College,0,Maadi,1,358974,29.95891452548896,31.2605343965376,6.878316241835597,-0.4744848095273931,0.2901011752220159
239,Malvern College Egypt,0,Katameya,1,191300,29.9874449,31.5102943234146,3.2333401839540947,-0.4147870750117564,0.7129093421301738
240,Misr Language Schools,0,El Haram,0,31600,29.850964,31.22094695,-0.2382933217991884,-0.7003634361458457,0.2230852375076301
241,St.John American School,1,El Shorouk,1,55000,30.11952805,31.60687795516707,0.2703868537463771,-0.138412686037714,0.8764117454388799
242,Modern School of Egypt 2000,0,The 5th Settlement,0,57000,30.00380455,31.424935726802204,0.3138637918271947,-0.3805556967278593,0.5684093328019629
243,The International School Of Egypt,1,The 5th Settlement,1,83500,30.00380455,31.424935726802204,0.8899332213980274,-0.3805556967278593,0.5684093328019629
244,Saint Fatima Language School Abbassia,0,Abbasiya,1,19436,30.066667,31.283333,-0.5027200592067208,-0.2490205901820088,0.3286959804757419
245,Alhossam International School,0,Hada'iq Al Ahram,1,21000,29.96909,31.0973093,-0.4687210936275215,-0.4531933688666444,0.0137842146775081
246,B.karnak Language School,0,Heliopolis,0,21000,30.0901239,31.326542634536956,-0.4687210936275215,-0.1999387322408102,0.4018437692334563
247,St. Fatima International School Al Hegaz,2,Heliopolis,1,130000,30.0901239,31.326542634536956,1.900772031777036,-0.1999387322408102,0.4018437692334563
248,The British International School Madinaty,2,Madinty,1,105636,30.09173685,31.638060827436064,1.3711359720765164,-0.1965637516267481,0.9291999297879128
249,The American International School Cairo,0,The 5th Settlement,1,80000,30.00380455,31.424935726802204,0.8138485797565967,-0.3805556967278593,0.5684093328019629
250,Maadi Narmer School,0,Maadi,0,52000,29.95891452548896,31.2605343965376,0.2051714466251507,-0.4744848095273931,0.2901011752220159
251,Deutsche Evangelische Oberschule Kairo,2,Dokki,1,101440,30.038186465234222,31.21081926315397,1.279921355982961,-0.3086140386540168,0.2059404987021192
252,Modern English School Cairo,0,The 5th Settlement,1,135000,30.00380455,31.424935726802204,2.00946437697908,-0.3805556967278593,0.5684093328019629
253,Ellwaa Official Language School,0,Agouza,0,1757,30.0549435,31.2127281,-0.8870344533721077,-0.2735511616374657,0.209171889013162
254,AL-Omran Modern Schools,0,Hada'iq Al Ahram,1,34125,29.96909,31.0973093,-0.1834036874721562,-0.4531933688666444,0.0137842146775081
255,The American International School West Campus,0,Sheikh Zayed,1,160000,30.056131850653067,30.972691160621636,2.5529261029893,-0.2710646242886201,-0.1971766377414677
256,The International School of Choueifat Cairo,0,The 5th Settlement,1,89000,30.00380455,31.424935726802204,1.0094948011202758,-0.3805556967278593,0.5684093328019629
257,Fatma Elzahraa Private School,0,Nasr City,1,8800,30.0521177,31.3422045,-0.7339304159205087,-0.2794639427027482,0.4283570882818516
258,International Public School New Administrative Capital,2,New Capital,0,15460,29.95213615,31.71293543787288,-0.5891522121113861,-0.4886680674524036,1.0559520360308874
259,Egyptian Japanese School Elsherouk 3,0,Future City,0,16000,30.04076775,30.982470847844823,-0.5774134388295654,-0.3032128879401675,-0.1806210129882277
260,New Qaitbay International school,0,Badr City,0,30000,30.5726337,30.70326411716084,-0.2730748722638424,0.8096779459576311,-0.6532784463284121
261,Cadmus International School,2,New Capital,1,99520,29.95213615,31.71293543787288,1.238183495425376,-0.4886680674524036,1.0559520360308874
262,Talaee Islamic Language School,0,Mohandessin,1,8500,30.05839515,31.202023080983963,-0.7404519566326313,-0.2663288349462721,0.1910498086478982
263,Helsinki semi international school,0,El Shorouk,1,36600,30.11952805,31.60687795516707,-0.1296009765971444,-0.138412686037714,0.8764117454388799
264,New Jazeera School,0,October,1,40150,31.08086685,29.724904831435097,-0.0524294115036933,1.8731188639521203,-2.3095020901597803
265,Hayah International Academy West,0,October,1,161000,31.08086685,29.724904831435097,2.5746645720297083,1.8731188639521203,-2.3095020901597803
266,Royal Canadian School,1,New Capital,1,94640,29.95213615,31.71293543787288,1.1320997665081811,-0.4886680674524036,1.0559520360308874
267,Giza Language School,0,El Haram,1,9000,29.850964,31.22094695,-0.7295827221124269,-0.7003634361458457,0.2230852375076301
268,EPIC School Egypt,0,October,1,89000,31.08086685,29.724904831435097,1.0094948011202758,1.8731188639521203,-2.3095020901597803
269,GEMS International School Cairo,0,Al Rehab,1,122243,27.2599794,31.346871748275863,1.732146727430585,-6.121810347929483,0.4362580782953303
270,Anglo American School New Capital,0,New Capital,1,42500,29.95213615,31.71293543787288,-0.0013440092587326,-0.4886680674524036,1.0559520360308874
271,London College,2,New Capital,1,43000,29.95213615,31.71293543787288,0.0095252252614717,-0.4886680674524036,1.0559520360308874
272,Badr Language School,0,Mokattam,1,9500,30.0163466,31.2804433,-0.7187134875922225,-0.3543123689057108,0.3238041278267177
273,Rowad Al-Mostaqbal Language School,0,Mokattam,1,20000,30.0163466,31.2804433,-0.4904595626679303,-0.3543123689057108,0.3238041278267177
274,International Public School October 3,2,October,0,15460,31.08086685,29.724904831435097,-0.5891522121113861,1.8731188639521203,-2.3095020901597803
275,Dr.Nermien Ismail Schools October,0,October,1,101200,31.08086685,29.724904831435097,1.274704123413263,1.8731188639521203,-2.3095020901597803
276,MAP School,0,El Haram,0,32250,29.850964,31.22094695,-0.2241633169229227,-0.7003634361458457,0.2230852375076301
277,Concord International College,0,Al Obour,1,65000,30.2288224,31.465685617766244,0.487771544150465,0.0902777956744871,0.6373931242197846
278,Kent College West Cairo,0,October,1,197000,31.08086685,29.724904831435097,3.3572494574844245,1.8731188639521203,-2.3095020901597803
279,Newcastle School,0,October,1,21000,31.08086685,29.724904831435097,-0.4687210936275215,1.8731188639521203,-2.3095020901597803
280,Knowledge language school,0,Al Maryoutia,1,20800,30.0426329,31.124639,-0.4730687874356032,-0.2993101971609496,0.0600495243436193
281,B.TECH School,2,Mokattam,1,200,30.0163466,31.2804433,-0.9208812496680242,-0.3543123689057108,0.3238041278267177
282,ITECH School,2,El Shorouk,1,200,30.11952805,31.60687795516707,-0.9208812496680242,-0.138412686037714,0.8764117454388799
283,Degla Smart Language School,0,Mokattam,1,25000,30.0163466,31.2804433,-0.3817672174658864,-0.3543123689057108,0.3238041278267177
284,Egyptian Japanese School October,0,October,0,16000,31.08086685,29.724904831435097,-0.5774134388295654,1.8731188639521203,-2.3095020901597803
285,Egyptian Japanese School Nacr City,0,Nasr City,0,16000,30.0521177,31.3422045,-0.5774134388295654,-0.2794639427027482,0.4283570882818516
286,15مايو,0,15-May,1,2500,29.8541469,31.385699787290086,-0.870882770875084,-0.6937034492916094,0.501988446675552
287,Aziz Abaza Official Language School,0,Nasr City,0,1591,30.0521177,31.3422045,-0.8906430392328156,-0.2794639427027482,0.4283570882818516
288,Maria Ausilia Private School,0,Shubra Masr,1,5500,30.2005981,31.3290642,-0.8056673637538576,0.0312204998216889,0.4061124222736038
289,Good Shepherd Sisters' Language School,0,Shubra Masr,1,12650,30.2005981,31.3290642,-0.6502373101149349,0.0312204998216889,0.4061124222736038
290,St.Catherine Language School,0,Shubra Masr,1,8500,30.2005981,31.3290642,-0.7404519566326313,0.0312204998216889,0.4061124222736038
291,Anas Ibn Malek Official Language School,0,El Shorouk,0,1591,30.11952805,31.60687795516707,-0.8906430392328156,-0.138412686037714,0.8764117454388799
292,Elsherouk Official Language School,0,El Shorouk,0,1590,30.11952805,31.60687795516707,-0.890664777701856,-0.138412686037714,0.8764117454388799
293,Alabtal Official Language School,0,El Shorouk,0,1591,30.11952805,31.60687795516707,-0.8906430392328156,-0.138412686037714,0.8764117454388799
294,Notre Dame School New Heliopolis,0,New Heliopolis,1,19000,31.124639,31.6925603,-0.5121980317083391,1.9647089056064104,1.0214598146315192
295,Sama International College,0,El Shorouk,0,37900,30.11952805,31.60687795516707,-0.101340966844613,-0.138412686037714,0.8764117454388799
296,Liverpool International School,1,Badr City,1,65000,30.5726337,30.70326411716084,0.487771544150465,0.8096779459576311,-0.6532784463284121
297,Mokatam Official Language School,0,Mokattam,0,1591,30.0163466,31.2804433,-0.8906430392328156,-0.3543123689057108,0.3238041278267177
298,الواحة المستقبل 18,0,Nasr City,1,2500,30.0521177,31.3422045,-0.870882770875084,-0.2794639427027482,0.4283570882818516
299,المستقبل 15,0,Mokattam,1,2500,30.0163466,31.2804433,-0.870882770875084,-0.3543123689057108,0.3238041278267177
300,Samir Fahmy Official Language School,0,The 3rd Settlement,0,1591,29.9808967,31.4347388067753,-0.8906430392328156,-0.4284887074597948,0.5850045581661992
301,Elshahid Mohamed Wahid Official Language School,0,The 3rd Settlement,0,1591,29.9808967,31.4347388067753,-0.8906430392328156,-0.4284887074597948,0.5850045581661992
302,New Heliopolis Modern School,0,New Heliopolis,1,33880,31.124639,31.6925603,-0.1887296123870563,1.9647089056064104,1.0214598146315192
303,Ahmed Zewail Official Language School (Future 21),0,The 5th Settlement,1,2500,30.00380455,31.424935726802204,-0.870882770875084,-0.3805556967278593,0.5684093328019629
304,DR. Magdy Yacoub Official Language school,0,The 1st Settlement,1,2500,30.0645714,31.447989244439903,-0.870882770875084,-0.2534054808325888,0.6074356716348563
305,Lieutenant Omar Soliman Official Language School,0,The 5th Settlement,1,2500,30.00380455,31.424935726802204,-0.870882770875084,-0.3805556967278593,0.5684093328019629
306,Bent Elshatae Official Language School,0,The 1st Settlement,0,1591,30.0645714,31.447989244439903,-0.8906430392328156,-0.2534054808325888,0.6074356716348563
307,Abo Bakr Official Language School,0,The 1st Settlement,0,1591,30.0645714,31.447989244439903,-0.8906430392328156,-0.2534054808325888,0.6074356716348563
308,Future 9 Official Language School,0,The 5th Settlement,1,2500,30.00380455,31.424935726802204,-0.870882770875084,-0.3805556967278593,0.5684093328019629
309,Salah Eldin Official Language school,0,The 5th Settlement,0,1590,30.00380455,31.424935726802204,-0.890664777701856,-0.3805556967278593,0.5684093328019629
310,AlRo'aya Official Language School,0,October,0,1591,31.08086685,29.724904831435097,-0.8906430392328156,1.8731188639521203,-2.3095020901597803
311,ElTahrir Official Language School,0,October,0,1757,31.08086685,29.724904831435097,-0.8870344533721077,1.8731188639521203,-2.3095020901597803
312,Tenth District Official Language school,0,October,0,1757,31.08086685,29.724904831435097,-0.8870344533721077,1.8731188639521203,-2.3095020901597803
313,6th of October Distinguished Official Language School,0,October,1,2500,31.08086685,29.724904831435097,-0.870882770875084,1.8731188639521203,-2.3095020901597803
314,5th District Distinguished Official Language School,0,October,1,2500,31.08086685,29.724904831435097,-0.870882770875084,1.8731188639521203,-2.3095020901597803
315,2nd District Distinguished Official Language School,0,October,1,2500,31.08086685,29.724904831435097,-0.870882770875084,1.8731188639521203,-2.3095020901597803
316,Nour ELIslam Azhar language school,0,El Haram,1,11400,29.850964,31.22094695,-0.6774103964154459,-0.7003634361458457,0.2230852375076301
317,Imperial College Egypt,0,Nasr City,1,87000,30.0521177,31.3422045,0.9660178630394582,-0.2794639427027482,0.4283570882818516
318,British Columbia Canadian International School West,1,October,1,138000,31.08086685,29.724904831435097,2.074679784100306,1.8731188639521203,-2.3095020901597803
319,El Salam Language School,0,Abbasiya,1,12000,30.066667,31.283333,-0.6643673149912006,-0.2490205901820088,0.3286959804757419
320,AMAL St Michael American College,0,Maadi,0,18800,29.95891452548896,31.2605343965376,-0.5165457255164209,-0.4744848095273931,0.2901011752220159
321,New Vision Language School Hadayek Alahram,0,Hada'iq Al Ahram,1,23500,29.96909,31.0973093,-0.4143749210264995,-0.4531933688666444,0.0137842146775081
322,Continental Palace International School ELSheikh Zayed,0,Sheikh Zayed,0,45563,30.056131850653067,30.972691160621636,0.0652409214120394,-0.2710646242886201,-0.1971766377414677
323,Repton Cairo School,2,The 5th Settlement,1,232000,30.00380455,31.424935726802204,4.118095873898732,-0.3805556967278593,0.5684093328019629
324,Modern Future Language School,0,Abbasiya,1,10950,30.066667,31.283333,-0.6871927074836298,-0.2490205901820088,0.3286959804757419
325,Adventist Private School,0,Hada'iq al-Zaytun,1,6000,30.107946432630147,31.311177992306487,-0.7947981292336532,-0.1626463784044102,0.3758336070032986
326,Orman Smart School Heliopolis,0,Heliopolis,1,11265,30.0901239,31.326542634536956,-0.680345089735901,-0.1999387322408102,0.4018437692334563
327,AlSayeda Aisha Language School,0,Heliopolis,1,7950,30.0901239,31.326542634536956,-0.7524081146048561,-0.1999387322408102,0.4018437692334563
328,Green City International School,2,North Giza,1,57000,29.9401222,31.151556,0.3138637918271947,-0.5138063844172452,0.1056161913865357
329,El Maaref El Hadetha Language School,0,Hada'iq al-Zaytun,1,8000,30.107946432630147,31.311177992306487,-0.7513211911528357,-0.1626463784044102,0.3758336070032986
330,Magdy Baby Home School,0,Hada'iq al-Zaytun,1,8000,30.107946432630147,31.311177992306487,-0.7513211911528357,-0.1626463784044102,0.3758336070032986
331,ST.Arsany Language School,0,Boulaq Abou El Ela,1,17200,30.05544175,31.23094357054444,-0.5513272759810749,-0.2725086097350751,0.2400080996357564
332,Saint Mary's Integrated School,0,Hada'iq al-Zaytun,1,10000,30.107946432630147,31.311177992306487,-0.7078442530720181,-0.1626463784044102,0.3758336070032986
333,Coptic Girls College,0,Abbasiya,1,6635,30.066667,31.283333,-0.7809942013929937,-0.2490205901820088,0.3286959804757419
334,Greek Catholic Patriarchal College,0,Downtown,1,21000,30.0445133,31.235728,-0.4687210936275215,-0.2953755968654078,0.2481074607826916
335,Talaea Gaber AlAnsari School,0,Hada'iq al-Zaytun,1,7400,30.107946432630147,31.311177992306487,-0.764364272577081,-0.1626463784044102,0.3758336070032986
336,Nile Egyptian schools October,2,October,0,35000,31.08086685,29.724904831435097,-0.1643825270617985,1.8731188639521203,-2.3095020901597803
337,Nile Egyptian Schools Obour,2,Al Obour,0,35035,30.2288224,31.465685617766244,-0.1636216806453842,0.0902777956744871,0.6373931242197846
338,Egypt School,0,Hada'iq Al Ahram,1,31000,29.96909,31.0973093,-0.2513364032234337,-0.4531933688666444,0.0137842146775081
339,Heliopolis Modern Language School,0,Heliopolis,1,24700,30.0901239,31.326542634536956,-0.388288758178009,-0.1999387322408102,0.4018437692334563
340,International Kingdom College,2,October,1,100000,31.08086685,29.724904831435097,1.2486179605647725,1.8731188639521203,-2.3095020901597803
341,Ivy STEM International School,1,Maadi,1,89860,29.95891452548896,31.2605343965376,1.0281898844950272,-0.4744848095273931,0.2901011752220159
342,Smart Generations School,0,Al Maryoutia,1,20000,30.0426329,31.124639,-0.4904595626679303,-0.2993101971609496,0.0600495243436193
343,Fanarah Language School,0,October,1,38000,31.08086685,29.724904831435097,-0.0991671199405721,1.8731188639521203,-2.3095020901597803
344,Our Lady Of Perpetual Succour School,0,New Heliopolis,1,15000,31.124639,31.6925603,-0.5991519078699742,1.9647089056064104,1.0214598146315192
345,Futures Language Schools Fustat,0,Masr El Kadima,1,9000,30.0072008,31.229366,-0.7295827221124269,-0.3734492905090985,0.2373374962351137
346,Othman Ibn Afan School,0,Al Rehab,1,15000,27.2599794,31.346871748275863,-0.5991519078699742,-6.121810347929483,0.4362580782953303
347,Dar Luqman Al Hakeem International School,1,The 5th Settlement,1,42000,30.00380455,31.424935726802204,-0.012213243778937,-0.3805556967278593,0.5684093328019629
348,Al Bayan Modern School,0,Nasr City,1,14000,30.0521177,31.3422045,-0.620890376910383,-0.2794639427027482,0.4283570882818516
349,AlManhal Private Language School,0,Nasr City,1,26450,30.0521177,31.3422045,-0.3502464373572936,-0.2794639427027482,0.4283570882818516
350,Al Ola Modern School,0,Nasr City,1,10000,30.0521177,31.3422045,-0.7078442530720181,-0.2794639427027482,0.4283570882818516
351,AL-Ola Language School,0,Nasr City,1,16045,30.0521177,31.3422045,-0.576435207722747,-0.2794639427027482,0.4283570882818516
352,Orman Smart School Nacr City,0,Nasr City,1,18900,30.0521177,31.3422045,-0.51437187861238,-0.2794639427027482,0.4283570882818516
353,Sun Language Schools,0,Al Maryoutia,1,20000,30.0426329,31.124639,-0.4904595626679303,-0.2993101971609496,0.0600495243436193
354,Wiseness Language school,0,El Haram,1,14700,29.850964,31.22094695,-0.6056734485820968,-0.7003634361458457,0.2230852375076301
355,Futures Language Schools Maadi,0,Maadi,1,15500,29.95891452548896,31.2605343965376,-0.5882826733497698,-0.4744848095273931,0.2901011752220159
356,Futures Language Schools Nasr City,0,Nasr City,1,17470,30.0521177,31.3422045,-0.5454578893401645,-0.2794639427027482,0.4283570882818516
357,Futures Language Schools Girls,0,Nasr City,1,10032,30.0521177,31.3422045,-0.707148622062725,-0.2794639427027482,0.4283570882818516
358,Futures Tech School,0,Sheraton,1,19740,30.10062255,31.37713650062093,-0.4961115646184366,-0.1779710703641664,0.4874920157045581
359,Orman Trust School,0,October,1,38200,31.08086685,29.724904831435097,-0.0948194261324904,1.8731188639521203,-2.3095020901597803
360,Alomran Smart Language Schools,0,El Haram,1,23000,29.850964,31.22094695,-0.425244155546704,-0.7003634361458457,0.2230852375076301
361,Seven Pillars International School,2,New Capital,1,114500,29.95213615,31.71293543787288,1.5638257616506996,-0.4886680674524036,1.0559520360308874
362,El Serag Languages School,0,Kerdasa,1,11500,30.03142255,31.115599860932907,-0.675236549511405,-0.3227670395472408,0.0447475426879827
363,Glory Language School,0,El Haram,1,12500,29.850964,31.22094695,-0.6534980804709962,-0.7003634361458457,0.2230852375076301
364,Victoria International college,1,October,1,55000,31.08086685,29.724904831435097,0.2703868537463771,1.8731188639521203,-2.3095020901597803
365,Smart Way Language School,0,Hada'iq Al Ahram,1,33000,29.96909,31.0973093,-0.2078594651426161,-0.4531933688666444,0.0137842146775081
366,Eternity School of Egypt,0,Sheikh Zayed,1,33000,30.056131850653067,30.972691160621636,-0.2078594651426161,-0.2710646242886201,-0.1971766377414677
367,Giza Metropolitan Language School,0,El Haram,1,20500,29.850964,31.22094695,-0.4795903281477259,-0.7003634361458457,0.2230852375076301
368,The Royal British International School,2,The 5th Settlement,1,138000,30.00380455,31.424935726802204,2.074679784100306,-0.3805556967278593,0.5684093328019629
369,British School of Elite Education,2,El Shorouk,1,110000,30.11952805,31.60687795516707,1.4660026509688602,-0.138412686037714,0.8764117454388799
370,Smart Village Schools (SVS),2,October,1,98834,31.08086685,29.724904831435097,1.2232709056636557,1.8731188639521203,-2.3095020901597803
371,Ehab Morsi Official Language School,0,October,0,1757,31.08086685,29.724904831435097,-0.8870344533721077,1.8731188639521203,-2.3095020901597803
372,M.KH.L.S,0,October,0,1757,31.08086685,29.724904831435097,-0.8870344533721077,1.8731188639521203,-2.3095020901597803
373,Global Paradigm English School,2,Future City,1,72000,30.04076775,30.982470847844823,0.6399408274333265,-0.3032128879401675,-0.1806210129882277
374,Global Paradigm Baccalaureate School Mostakbal City,2,Future City,1,118000,30.04076775,30.982470847844823,1.6399104032921306,-0.3032128879401675,-0.1806210129882277
375,Modern Narmer Language School,0,Dokki,1,11000,30.038186465234222,31.21081926315397,-0.6861057840316094,-0.3086140386540168,0.2059404987021192
376,ALKaria ALseyahia Official Language School,0,October,0,1757,31.08086685,29.724904831435097,-0.8870344533721077,1.8731188639521203,-2.3095020901597803
377,AlNasr Official Language School,0,October,0,1757,31.08086685,29.724904831435097,-0.8870344533721077,1.8731188639521203,-2.3095020901597803
378,Egyptian Chinese Friendship School,0,October,1,2500,31.08086685,29.724904831435097,-0.870882770875084,1.8731188639521203,-2.3095020901597803
379,AlHoda Official Language School,0,October,0,1757,31.08086685,29.724904831435097,-0.8870344533721077,1.8731188639521203,-2.3095020901597803
380,Tarek Ibn Ziyad Official Language School,0,Sheikh Zayed,1,1591,30.056131850653067,30.972691160621636,-0.8906430392328156,-0.2710646242886201,-0.1971766377414677
381,Abo Bakr Official Language School,0,Sheikh Zayed,0,1757,30.056131850653067,30.972691160621636,-0.8870344533721077,-0.2710646242886201,-0.1971766377414677
382,Millennium Language Schools Katameya,0,Katameya,1,29000,29.9874449,31.5102943234146,-0.2948133413042512,-0.4147870750117564,0.7129093421301738
383,Nozha Language School,0,Cairo-Ismailia Desert Road,1,24000,30.1490863,31.4249067,-0.4035056865062951,-0.0765641967876298,0.5683601945387355
384,Sakkara Language School ElHaram,0,Al Maryoutia,1,11000,30.0426329,31.124639,-0.6861057840316094,-0.2993101971609496,0.0600495243436193
385,College Saint Joseph De L'Apparition,0,Abbasiya,1,10400,30.066667,31.283333,-0.6991488654558546,-0.2490205901820088,0.3286959804757419
386,Al Yasser Language School,0,The 5th Settlement,1,27000,30.00380455,31.424935726802204,-0.3382902793850688,-0.3805556967278593,0.5684093328019629
387,Armenian Catholic Sisters' School,0,Heliopolis,1,27500,30.0901239,31.326542634536956,-0.3274210448648644,-0.1999387322408102,0.4018437692334563
388,Carleton College,2,El Shorouk,1,112000,30.11952805,31.60687795516707,1.5094795890496775,-0.138412686037714,0.8764117454388799
389,Rawasy Misr International School,1,New Heliopolis,1,36000,31.124639,31.6925603,-0.1426440580213897,1.9647089056064104,1.0214598146315192
390,Zein College Language Schools,0,El Haram,1,13500,29.850964,31.22094695,-0.6317596114305873,-0.7003634361458457,0.2230852375076301
391,St Mary's School Shoubra,0,Shubra Masr,1,10000,30.2005981,31.3290642,-0.7078442530720181,0.0312204998216889,0.4061124222736038
392,Ecole Sainte Anne,0,El Daher,1,12000,30.06207115,31.2548915439843,-0.6643673149912006,-0.2586370721902415,0.280548625403369
393,Remas Language School,0,Mokattam,1,31280,30.0163466,31.2804433,-0.2452496318921192,-0.3543123689057108,0.3238041278267177
394,Saint joseph language school zamalek,0,Zamalek,1,12000,29.9289553,30.934665072489047,-0.6643673149912006,-0.5371723108373451,-0.2615494169101001
395,Ecole Des Religieuses Franciscaines Kasr El-Nil,0,Downtown,0,12500,30.0445133,31.235728,-0.6534980804709962,-0.2953755968654078,0.2481074607826916
396,Futures Language Schools AlRehab,0,Al Rehab,1,17000,27.2599794,31.346871748275863,-0.5556749697891566,-6.121810347929483,0.4362580782953303
397,Le College Francais in maadi,0,Maadi,1,166000,29.95891452548896,31.2605343965376,2.683356917231752,-0.4744848095273931,0.2901011752220159
398,Collège de la Sainte Famille Jesuites,0,Ramses,0,23000,30.0629785,31.2460533,-0.425244155546704,-0.256738508279287,0.2655867306574221
399,Holy Family School For Girls Helwan,0,Helwan,1,7320,29.8500001,31.333333,-0.7661033501003137,-0.7023803268206342,0.4133388958134753
400,Manaret El-Eman International School,2,Nasr City,1,77000,30.0521177,31.3422045,0.7486331726353703,-0.2794639427027482,0.4283570882818516
401,Manaret El-Eman Language School,0,Nasr City,1,26000,30.0521177,31.3422045,-0.3600287484254776,-0.2794639427027482,0.4283570882818516
402,Notre Dame De la Delivrande,0,El Daher,1,11500,30.06207115,31.2548915439843,-0.675236549511405,-0.2586370721902415,0.280548625403369
403,Notre Dame Des Apotres School Ahmed Saeed,0,Abbasiya,1,11000,30.066667,31.283333,-0.6861057840316094,-0.2490205901820088,0.3286959804757419
404,St.George's College Nasr City,0,Nasr City,1,22000,30.0521177,31.3422045,-0.4469826245871127,-0.2794639427027482,0.4283570882818516
405,Manaret Heliopolis Language School,0,Nasr City,1,32000,30.0521177,31.3422045,-0.2295979341830249,-0.2794639427027482,0.4283570882818516
406,Misr American College,1,Maadi,1,69100,29.95891452548896,31.2605343965376,0.5768992672161409,-0.4744848095273931,0.2901011752220159
407,Dr.Nermien Ismail Schools New Capital,0,New Capital,0,52800,29.95213615,31.71293543787288,0.2225622218574778,-0.4886680674524036,1.0559520360308874
408,Cairo British College -CBC,2,October,1,65000,31.08086685,29.724904831435097,0.487771544150465,1.8731188639521203,-2.3095020901597803
409,Notre Dame Des Apotres School Heliopolis,0,Heliopolis,1,14200,30.0901239,31.326542634536956,-0.6165426831023012,-0.1999387322408102,0.4018437692334563
410,Notre Dame Des Apôtres School Shoubra,0,Shubra Masr,1,7500,30.2005981,31.3290642,-0.7621904256730401,0.0312204998216889,0.4061124222736038
411,Collège Saint Paul (Frères) Choubra,0,Shubra Masr,1,16000,30.2005981,31.3290642,-0.5774134388295654,0.0312204998216889,0.4061124222736038
412,Collège Saint-Joseph Khoronfish,0,Bab El Shaaria,1,11830,30.0551319,31.2576045,-0.66806285472807,-0.273156948334085,0.2851412755304056
413,Frères Bab Ellouk,0,Bab El Luq,1,22000,30.0458315,31.239586,-0.4469826245871127,-0.2926173591981081,0.2546385081301468
414,Futures Language School Moqattam,0,Mokattam,1,11035,30.0163466,31.2804433,-0.685344937615195,-0.3543123689057108,0.3238041278267177
415,Liberty Language School,0,Mokattam,1,24860,30.0163466,31.2804433,-0.3848106031315436,-0.3543123689057108,0.3238041278267177
416,El Alyaa Private Schools,0,Maadi,1,22000,29.95891452548896,31.2605343965376,-0.4469826245871127,-0.4744848095273931,0.2901011752220159
417,IMS,0,Maadi,1,33500,29.95891452548896,31.2605343965376,-0.1969902306224117,-0.4744848095273931,0.2901011752220159
418,Orman Elite School,0,El Haram,1,19480,29.850964,31.22094695,-0.5017635665689428,-0.7003634361458457,0.2230852375076301
419,Ramatan Language School,0,Maadi,1,27750,29.95891452548896,31.2605343965376,-0.3219864276047622,-0.4744848095273931,0.2901011752220159
420,Stars British School,2,Maadi,1,42000,29.95891452548896,31.2605343965376,-0.012213243778937,-0.4744848095273931,0.2901011752220159
421,Stars Language School,0,Maadi,1,38000,29.95891452548896,31.2605343965376,-0.0991671199405721,-0.4744848095273931,0.2901011752220159
422,Sam Baiker international School,1,Maadi,1,40000,29.95891452548896,31.2605343965376,-0.0556901818597546,-0.4744848095273931,0.2901011752220159
423,Provence Language School,0,Maadi,1,39000,29.95891452548896,31.2605343965376,-0.0774286509001634,-0.4744848095273931,0.2901011752220159
424,Futures International School,1,Katameya,1,40000,29.9874449,31.5102943234146,-0.0556901818597546,-0.4147870750117564,0.7129093421301738
425,Europa Schule Neu Kairo,2,The 5th Settlement,1,135000,30.00380455,31.424935726802204,2.00946437697908,-0.3805556967278593,0.5684093328019629
426,Sun of Glory International School,1,Maadi,1,69000,29.95891452548896,31.2605343965376,0.5747254203121,-0.4744848095273931,0.2901011752220159
427,Albashaer School,0,Maadi,1,33000,29.95891452548896,31.2605343965376,-0.2078594651426161,-0.4744848095273931,0.2901011752220159
428,Asmaa Fahmy language school,0,Dokki,1,3600,30.038186465234222,31.21081926315397,-0.8469704549306344,-0.3086140386540168,0.2059404987021192
429,Lycée Pyramid School,0,Al Omraneya,1,12000,30.007087,31.2060355,-0.6643673149912006,-0.3736874087358788,0.1978422655093742
430,College du bon pasteur choubra,0,Shubra Masr,1,10000,30.2005981,31.3290642,-0.7078442530720181,0.0312204998216889,0.4061124222736038
431,Egyptian Language School Nasr City,0,Nasr City,1,45000,30.0521177,31.3422045,0.0530021633422892,-0.2794639427027482,0.4283570882818516
432,Alfarouk Islamic Language School,0,Nasr City,1,22000,30.0521177,31.3422045,-0.4469826245871127,-0.2794639427027482,0.4283570882818516
433,Nobel Language School,0,Mokattam,1,13410,30.0163466,31.2804433,-0.6337160736442242,-0.3543123689057108,0.3238041278267177
434,Al Ahram Language School,0,Nasr City,1,30000,30.0521177,31.3422045,-0.2730748722638424,-0.2794639427027482,0.4283570882818516
435,Al-Waha international school,0,Mokattam,0,15000,30.0163466,31.2804433,-0.5991519078699742,-0.3543123689057108,0.3238041278267177
436,El Horreya Language School,0,Dokki,1,11000,30.038186465234222,31.21081926315397,-0.6861057840316094,-0.3086140386540168,0.2059404987021192
437,Zamalek National Mixed School,0,Zamalek,1,7500,29.9289553,30.934665072489047,-0.7621904256730401,-0.5371723108373451,-0.2615494169101001
438,El Qaed Private School,0,Heliopolis,1,11500,30.0901239,31.326542634536956,-0.675236549511405,-0.1999387322408102,0.4018437692334563
439,Al Retaj Language School,0,The 5th Settlement,1,31000,30.00380455,31.424935726802204,-0.2513364032234337,-0.3805556967278593,0.5684093328019629
440,Hadaiq El Qobba El Qawmaiya School,0,Hada'iq Al Qubbah,1,5500,30.0821548,31.2825119,-0.8056673637538576,-0.2166134946398986,0.3273059745200663
441,Inspire Language Schools New Cairo,0,New Cairo,1,21000,30.0277688,31.4756825,-0.4687210936275215,-0.3304122457958376,0.6543164293508484
442,Our Lady Of Perpetual Succour School,0,Heliopolis,1,13000,30.0901239,31.326542634536956,-0.6426288459507917,-0.1999387322408102,0.4018437692334563
443,National School Ahram,0,Heliopolis,1,8266,30.0901239,31.326542634536956,-0.7455387583880869,-0.1999387322408102,0.4018437692334563
444,Nasr City Private School,0,Nasr City,1,12220,30.0521177,31.3422045,-0.6595848518023106,-0.2794639427027482,0.4283570882818516
445,Maadi Canal School,0,Maadi,1,10000,29.95891452548896,31.2605343965376,-0.7078442530720181,-0.4744848095273931,0.2901011752220159
446,Sacred Heart Girls' School,0,Heliopolis,1,12000,30.0901239,31.326542634536956,-0.6643673149912006,-0.1999387322408102,0.4018437692334563
447,Lycée Al-Horreya de Méadi,0,Maadi,0,14000,29.95891452548896,31.2605343965376,-0.620890376910383,-0.4744848095273931,0.2901011752220159
448,Lycée Al-Horreya de zamalek,0,Zamalek,0,10000,29.9289553,30.934665072489047,-0.7078442530720181,-0.5371723108373451,-0.2615494169101001
449,Stanford International School,0,The 5th Settlement,1,62000,30.00380455,31.424935726802204,0.4225561370292386,-0.3805556967278593,0.5684093328019629
450,Lycée Al-Horreya De Bab El-Louk,0,Bab El Luq,0,9200,30.0458315,31.239586,-0.7252350283043452,-0.2926173591981081,0.2546385081301468
451,Saint Clare's College,0,Heliopolis,1,10000,30.0901239,31.326542634536956,-0.7078442530720181,-0.1999387322408102,0.4018437692334563
452,Wadi El Nile Private school,0,Helwan,1,5000,29.8500001,31.333333,-0.816536598274062,-0.7023803268206342,0.4133388958134753
453,Port Said Schools,0,Zamalek,0,12500,29.9289553,30.934665072489047,-0.6534980804709962,-0.5371723108373451,-0.2615494169101001
454,Ramses College for Girls,0,Downtown,0,14000,30.0445133,31.235728,-0.620890376910383,-0.2953755968654078,0.2481074607826916
455,Alomran Language School,0,Al Maryoutia,1,15200,30.0426329,31.124639,-0.5948042140618924,-0.2993101971609496,0.0600495243436193
456,Al Jazeera Language School,0,El Haram,1,17200,29.850964,31.22094695,-0.5513272759810749,-0.7003634361458457,0.2230852375076301
457,Horizon Language School,0,Al Obour,1,17000,30.2288224,31.465685617766244,-0.5556749697891566,0.0902777956744871,0.6373931242197846
458,Alam El Deen Language School,0,Sayyeda Zainab,1,10850,30.0273241,31.2404117,-0.6893665543876707,-0.3313427482162942,0.2560363012340342
459,Collège Saint Vincent de Paul El Helmiah El Guedida,0,New Helmeiya,0,16500,30.1081344,31.3357763,-0.566544204309361,-0.1622530703481559,0.417475056514368
460,Egyptian Japanese School Hadayiq October,0,October,0,16000,31.08086685,29.724904831435097,-0.5774134388295654,1.8731188639521203,-2.3095020901597803
461,Egyptian Japanese School October,0,October,0,16000,31.08086685,29.724904831435097,-0.5774134388295654,1.8731188639521203,-2.3095020901597803
462,Egyptian Japanese School in Zayed,0,Sheikh Zayed,0,16000,30.056131850653067,30.972691160621636,-0.5774134388295654,-0.2710646242886201,-0.1971766377414677
463,Egyptian Japanese School Obour City,0,Al Obour,0,16000,30.2288224,31.465685617766244,-0.5774134388295654,0.0902777956744871,0.6373931242197846
464,Bright Language School,0,Helwan,1,17000,29.8500001,31.333333,-0.5556749697891566,-0.7023803268206342,0.4133388958134753
465,EJS,0,El Shorouk,0,16000,30.11952805,31.60687795516707,-0.5774134388295654,-0.138412686037714,0.8764117454388799
466,Egyptian Japanese School New Cairo,0,New Cairo,0,16000,30.0277688,31.4756825,-0.5774134388295654,-0.3304122457958376,0.6543164293508484
467,Agyal Integrated Language School,0,New Cairo,1,25500,30.0277688,31.4756825,-0.370897982945682,-0.3304122457958376,0.6543164293508484
468,Sphinx International School,1,New Cairo,1,82370,30.0277688,31.4756825,0.8653687513823656,-0.3304122457958376,0.6543164293508484
469,Egyptian Japanese School Elsherouk 1,0,El Shorouk,0,16000,30.11952805,31.60687795516707,-0.5774134388295654,-0.138412686037714,0.8764117454388799
470,Nile Egyptian Schools Jasmine Branch,0,New Cairo,0,39950,30.0277688,31.4756825,-0.056777105311775,-0.3304122457958376,0.6543164293508484
471,Noor International School,0,Maadi,1,28000,29.95891452548896,31.2605343965376,-0.31655181034466,-0.4744848095273931,0.2901011752220159
472,Tajan Azharian Language Institutes,0,New Cairo,1,27000,30.0277688,31.4756825,-0.3382902793850688,-0.3304122457958376,0.6543164293508484
473,collège Saint Vincent de Paul Abbassieh,0,Abbasiya,1,8000,30.066667,31.283333,-0.7513211911528357,-0.2490205901820088,0.3286959804757419
474,Nile Egyptian Schools Sherouk Branch,0,El Shorouk,0,45377,30.11952805,31.60687795516707,0.0611975661705234,-0.138412686037714,0.8764117454388799
475,Manaret Al Salem Language School,0,Nasr City,1,16350,30.0521177,31.3422045,-0.5698049746654223,-0.2794639427027482,0.4283570882818516
476,Nile Egyptian Schools Sheikh Zayed Branch,0,Sheikh Zayed,0,35000,30.056131850653067,30.972691160621636,-0.1643825270617985,-0.2710646242886201,-0.1971766377414677
477,Al Shrouk Modern School,0,El Shorouk,1,21500,30.11952805,31.60687795516707,-0.4578518591073171,-0.138412686037714,0.8764117454388799
478,Manaret Al Farouk Islamic Language School,0,The 1st Settlement,0,31000,30.0645714,31.447989244439903,-0.2513364032234337,-0.2534054808325888,0.6074356716348563
479,Nile Egyptian Schools ElAndalus Branch,0,The 3rd Settlement,0,39950,29.9808967,31.4347388067753,-0.056777105311775,-0.4284887074597948,0.5850045581661992
480,Al Sarh Private Schools Maadi,0,Maadi,1,17648,29.95891452548896,31.2605343965376,-0.5415884418509718,-0.4744848095273931,0.2901011752220159
481,Modern School Helmeya,0,Helmeiya Al Zaytun,1,7000,29.1797446,31.1542228,-0.7730596601932445,-2.104841233219305,0.1101307059189891
482,International Public School 6 October 2,2,October,0,15460,31.08086685,29.724904831435097,-0.5891522121113861,1.8731188639521203,-2.3095020901597803
483,International Public School Mostafa El Nahas,2,Nasr City,0,15460,30.0521177,31.3422045,-0.5891522121113861,-0.2794639427027482,0.4283570882818516
484,International Public School,2,Nasr City,0,15460,30.0521177,31.3422045,-0.5891522121113861,-0.2794639427027482,0.4283570882818516
485,International Public School El Obour,2,Al Obour,0,15460,30.2288224,31.465685617766244,-0.5891522121113861,0.0902777956744871,0.6373931242197846
486,International Public School El Shorouk,2,El Shorouk,0,15750,30.11952805,31.60687795516707,-0.5828480560896676,-0.138412686037714,0.8764117454388799
487,International public school 6 October,2,October,0,15460,31.08086685,29.724904831435097,-0.5891522121113861,1.8731188639521203,-2.3095020901597803
488,The Egyptian International School In El-Marag,2,Zahraa al Maadi,0,16050,29.96051175,31.32331893333732,-0.576326515377545,-0.4711427333557288,0.3963864998791616
489,Zoser Princes School,0,The 1st Settlement,1,22500,30.0645714,31.447989244439903,-0.4361133900669083,-0.2534054808325888,0.6074356716348563
490,St. Joseph School Heliopolis,0,Heliopolis,1,11000,30.0901239,31.326542634536956,-0.6861057840316094,-0.1999387322408102,0.4018437692334563
491,Pioneer Language School Heliopolis,0,Heliopolis,1,14000,30.0901239,31.326542634536956,-0.620890376910383,-0.1999387322408102,0.4018437692334563
492,Badr Al Islam Language School,0,Nasr City,1,15500,30.0521177,31.3422045,-0.5882826733497698,-0.2794639427027482,0.4283570882818516
493,Egyptian International School Fifth Settlement,2,The 5th Settlement,0,20005,30.00380455,31.424935726802204,-0.4903508703227282,-0.3805556967278593,0.5684093328019629
494,Alsun Modern School,0,Nasr City,1,16400,30.0521177,31.3422045,-0.5687180512134019,-0.2794639427027482,0.4283570882818516
495,Sahara International School,2,Downtown,1,47000,30.0445133,31.235728,0.0964791014231068,-0.2953755968654078,0.2481074607826916
496,Sahara Language School,0,Downtown,1,13500,30.0445133,31.235728,-0.6317596114305873,-0.2953755968654078,0.2481074607826916
497,Newcastle international school New Capital,0,New Capital,1,75650,29.95213615,31.71293543787288,0.7192862394308185,-0.4886680674524036,1.0559520360308874
498,Manarat El Mostaqbal American School,1,Mokattam,1,50200,30.0163466,31.2804433,0.1660422023524149,-0.3543123689057108,0.3238041278267177
499,Thebes Language School Nasr City,0,Nasr City,1,25000,30.0521177,31.3422045,-0.3817672174658864,-0.2794639427027482,0.4283570882818516
500,Future Integrated Language Schools,0,El Haram,1,22800,29.850964,31.22094695,-0.4295918493547857,-0.7003634361458457,0.2230852375076301
501,Greatness Language School,0,Kerdasa,1,4700,30.03142255,31.115599860932907,-0.8230581389861846,-0.3227670395472408,0.0447475426879827
502,Brilliant Minds School,0,Mokattam,1,27000,30.0163466,31.2804433,-0.3382902793850688,-0.3543123689057108,0.3238041278267177
503,Royal Gardens Language School,0,Kerdasa,1,17900,30.03142255,31.115599860932907,-0.5361103476527888,-0.3227670395472408,0.0447475426879827
504,Creative Mind Language School,0,El Haram,1,30000,29.850964,31.22094695,-0.2730748722638424,-0.7003634361458457,0.2230852375076301
505,Al Hayat Modern Language Schools,0,El Haram,1,20000,29.850964,31.22094695,-0.4904595626679303,-0.7003634361458457,0.2230852375076301
506,Bloom Language School,0,Al Maryoutia,1,15750,30.0426329,31.124639,-0.5828480560896676,-0.2993101971609496,0.0600495243436193
507,Winners Language School,0,Abu Rawash,1,15950,30.0323187,31.0757089,-0.5785003622815859,-0.3208919108220489,-0.0227822018917157
508,El-Quadah Language Schools,0,October,1,50000,31.08086685,29.724904831435097,0.1616945085443332,1.8731188639521203,-2.3095020901597803
509,Genius Modern School,0,Kerdasa,0,14000,30.03142255,31.115599860932907,-0.620890376910383,-0.3227670395472408,0.0447475426879827
510,Zewail Smart Language School,0,Shubramant,1,13500,29.9407683,31.1901228,-0.6317596114305873,-0.5124544671385054,0.1709043191314836
511,Valley Language School,0,Al Maryoutia,0,7500,30.0426329,31.124639,-0.7621904256730401,-0.2993101971609496,0.0600495243436193
512,Eagles Language School Giza,0,El Haram,1,9000,29.850964,31.22094695,-0.7295827221124269,-0.7003634361458457,0.2230852375076301
513,Delta Language School,0,October,1,12000,31.08086685,29.724904831435097,-0.6643673149912006,1.8731188639521203,-2.3095020901597803
514,Riyad Al-Salheen Private School,0,October,1,10000,31.08086685,29.724904831435097,-0.7078442530720181,1.8731188639521203,-2.3095020901597803
515,Thebes International Schools October,0,October,0,18000,31.08086685,29.724904831435097,-0.5339365007487479,1.8731188639521203,-2.3095020901597803
516,Smart School,0,October,1,34900,31.08086685,29.724904831435097,-0.1665563739658394,1.8731188639521203,-2.3095020901597803
517,Rising Stars Language School,0,October,1,20000,31.08086685,29.724904831435097,-0.4904595626679303,1.8731188639521203,-2.3095020901597803
518,Zahret El-Madain Private School,0,October,1,13000,31.08086685,29.724904831435097,-0.6426288459507917,1.8731188639521203,-2.3095020901597803
519,New Egyptian Language School,0,Heliopolis,1,19200,30.0901239,31.326542634536956,-0.5078503379002574,-0.1999387322408102,0.4018437692334563
520,Elsayeda Khadiga Private Language School,0,Heliopolis,1,10376,30.0901239,31.326542634536956,-0.6996705887128244,-0.1999387322408102,0.4018437692334563
521,Al-Faisalia Islamic School For Girls,0,October,1,24775,31.08086685,29.724904831435097,-0.3866583729999783,1.8731188639521203,-2.3095020901597803
522,Taher Abu Zeid Private School,0,Al Obour,1,12250,30.2288224,31.465685617766244,-0.6589326977310984,0.0902777956744871,0.6373931242197846
523,Pioneer Integrated School,0,Cairo-Ismailia Desert Road,0,19000,30.1490863,31.4249067,-0.5121980317083391,-0.0765641967876298,0.5683601945387355
524,Highlands School Of Egypt,0,October,1,72000,31.08086685,29.724904831435097,0.6399408274333265,1.8731188639521203,-2.3095020901597803
525,El-Massria Integrated Schools Qibaa Campus,0,Gesr El Suez,1,10000,30.0883271,31.3019009,-0.7078442530720181,-0.2036984056140516,0.3601288042297327
526,St. Joseph's School Obour City,0,Al Obour,1,14000,30.2288224,31.465685617766244,-0.620890376910383,0.0902777956744871,0.6373931242197846
527,Safwa Language School,0,Al Obour,1,19700,30.2288224,31.465685617766244,-0.4969811033800529,0.0902777956744871,0.6373931242197846
528,Manarat Al Bayan Language School,0,Al Obour,1,14000,30.2288224,31.465685617766244,-0.620890376910383,0.0902777956744871,0.6373931242197846
529,Eagles Language School,0,Al Obour,1,42000,30.2288224,31.465685617766244,-0.012213243778937,0.0902777956744871,0.6373931242197846
530,Om Elmomineen schools,0,October,1,10530,31.08086685,29.724904831435097,-0.6963228644806014,1.8731188639521203,-2.3095020901597803
531,Nile Sons International School,0,Al Obour,1,59000,30.2288224,31.465685617766244,0.3573407299080122,0.0902777956744871,0.6373931242197846
532,Saint Joseph Maronite School,0,El Daher,1,13500,30.06207115,31.2548915439843,-0.6317596114305873,-0.2586370721902415,0.280548625403369
533,Golf Language School,0,Al Obour,1,16500,30.2288224,31.465685617766244,-0.566544204309361,0.0902777956744871,0.6373931242197846
534,Modern Avenue School,0,Al Obour,1,22500,30.2288224,31.465685617766244,-0.4361133900669083,0.0902777956744871,0.6373931242197846
535,stanford integrated school,0,Al Obour,1,20000,30.2288224,31.465685617766244,-0.4904595626679303,0.0902777956744871,0.6373931242197846
536,Geel 2000 Language School,0,October,1,12200,31.08086685,29.724904831435097,-0.6600196211831189,1.8731188639521203,-2.3095020901597803
537,Al Resala Language School,0,Al Obour,1,24500,30.2288224,31.465685617766244,-0.3926364519860907,0.0902777956744871,0.6373931242197846
538,Green Valley School,0,Al Obour,0,60000,30.2288224,31.465685617766244,0.379079198948421,0.0902777956744871,0.6373931242197846
539,Cairo British School,2,Cairo-Ismailia Desert Road,1,76000,30.1490863,31.4249067,0.7268947035949616,-0.0765641967876298,0.5683601945387355
540,Rajac Schools,0,Cairo-Ismailia Desert Road,0,30000,30.1490863,31.4249067,-0.2730748722638424,-0.0765641967876298,0.5683601945387355
541,Menese schools Heliopolis,0,Heliopolis,1,11000,30.0901239,31.326542634536956,-0.6861057840316094,-0.1999387322408102,0.4018437692334563
542,Nefertari International School,0,Cairo-Ismailia Desert Road,0,43000,30.1490863,31.4249067,0.0095252252614717,-0.0765641967876298,0.5683601945387355
543,Oxford Modern School,2,Al Obour,1,73999,30.2288224,31.465685617766244,0.6833960270451036,0.0902777956744871,0.6373931242197846
544,New Generation International Schools,1,Cairo-Ismailia Desert Road,1,76300,30.1490863,31.4249067,0.7334162443070842,-0.0765641967876298,0.5683601945387355
545,Leaders Language School,0,The 5th Settlement,1,50000,30.00380455,31.424935726802204,0.1616945085443332,-0.3805556967278593,0.5684093328019629
546,The Continental School of Cairo (CSC),0,Al Obour,0,30000,30.2288224,31.465685617766244,-0.2730748722638424,0.0902777956744871,0.6373931242197846
547,New Castle Language School,0,Al Obour,1,12000,30.2288224,31.465685617766244,-0.6643673149912006,0.0902777956744871,0.6373931242197846
548,Seeds Language School,0,Cairo-Ismailia Desert Road,1,39600,30.1490863,31.4249067,-0.0643855694759181,-0.0765641967876298,0.5683601945387355
549,Bardy Language School,0,Cairo-Ismailia Desert Road,1,19000,30.1490863,31.4249067,-0.5121980317083391,-0.0765641967876298,0.5683601945387355
550,Qaitbay Private Language Schools,0,The 5th Settlement,0,40000,30.00380455,31.424935726802204,-0.0556901818597546,-0.3805556967278593,0.5684093328019629
551,Futures Language Schools ElSherouk,0,El Shorouk,1,20000,30.11952805,31.60687795516707,-0.4904595626679303,-0.138412686037714,0.8764117454388799
552,Talent Language School,0,October,1,29900,31.08086685,29.724904831435097,-0.2752487191678833,1.8731188639521203,-2.3095020901597803
553,Uptown International School,2,Mokattam,1,111350,30.0163466,31.2804433,1.495349584173412,-0.3543123689057108,0.3238041278267177
554,Falcon International Language School,0,New Heliopolis,0,36000,31.124639,31.6925603,-0.1426440580213897,1.9647089056064104,1.0214598146315192
555,Memphis International School (MIS),0,El Shorouk,0,27000,30.11952805,31.60687795516707,-0.3382902793850688,-0.138412686037714,0.8764117454388799
556,Mena language schools,0,El Shorouk,1,17500,30.11952805,31.60687795516707,-0.5448057352689523,-0.138412686037714,0.8764117454388799
557,Amgad Schools Alshorouk,0,El Shorouk,0,22500,30.11952805,31.60687795516707,-0.4361133900669083,-0.138412686037714,0.8764117454388799
558,Utopia International School,0,Badr City,1,75000,30.5726337,30.70326411716084,0.7051562345545528,0.8096779459576311,-0.6532784463284121
559,Ramses International School,0,New Heliopolis,1,84500,31.124639,31.6925603,0.9116716904384362,1.9647089056064104,1.0214598146315192
560,Renaissance International School of Egypt,2,El Shorouk,1,77350,30.11952805,31.60687795516707,0.7562416367995134,-0.138412686037714,0.8764117454388799
561,Sunrise Star School,0,El Shorouk,0,24000,30.11952805,31.60687795516707,-0.4035056865062951,-0.138412686037714,0.8764117454388799
562,Royal Youssef School,0,El Shorouk,1,14500,30.11952805,31.60687795516707,-0.6100211423901786,-0.138412686037714,0.8764117454388799
563,New Generation Modern School,0,Salam City,0,8900,30.17479935,31.4091625423734,-0.7317565690164678,-0.0227615089927893,0.541707566517692
564,Millennium Language School ElShorouk,0,El Shorouk,1,27000,30.11952805,31.60687795516707,-0.3382902793850688,-0.138412686037714,0.8764117454388799
565,Manaret Al Shorouk Language School,0,El Shorouk,1,24180,30.11952805,31.60687795516707,-0.3995927620790215,-0.138412686037714,0.8764117454388799
566,El Alsson International School,0,Abu Nomros,1,66300,29.94945675,31.216428103427862,0.5160315539029964,-0.4942745171609207,0.215435470551046
567,Collège De La Salle Egypte,0,El Daher,0,20500,30.06207115,31.2548915439843,-0.4795903281477259,-0.2586370721902415,0.280548625403369
568,Aton Language Schools,0,Mokattam,1,17600,30.0163466,31.2804433,-0.5426318883649114,-0.3543123689057108,0.3238041278267177
569,Paradise Language School,0,Mokattam,1,16000,30.0163466,31.2804433,-0.5774134388295654,-0.3543123689057108,0.3238041278267177
570,Amgad International School Maadi,0,Maadi,1,17000,29.95891452548896,31.2605343965376,-0.5556749697891566,-0.4744848095273931,0.2901011752220159
571,Lavanda Language School,0,Mokattam,1,32300,30.0163466,31.2804433,-0.2230763934709022,-0.3543123689057108,0.3238041278267177
572,Elshorfa School,0,El Daher,1,3000,30.06207115,31.2548915439843,-0.8600135363548796,-0.2586370721902415,0.280548625403369
573,Amal Language School,0,Maadi,0,33000,29.95891452548896,31.2605343965376,-0.2078594651426161,-0.4744848095273931,0.2901011752220159
574,El Hossary Azhar Language School,0,October,1,18000,31.08086685,29.724904831435097,-0.5339365007487479,1.8731188639521203,-2.3095020901597803
575,New Ramses College,0,Ghamrah,0,15000,30.06207115,31.2548915439843,-0.5991519078699742,-0.2586370721902415,0.280548625403369
576,Le Collège du Sacré-Cœur du Caire,0,Ghamrah,0,12000,30.06207115,31.2548915439843,-0.6643673149912006,-0.2586370721902415,0.280548625403369
577,Six October Language Schools,0,October,1,9681,31.08086685,29.724904831435097,-0.7147788246959086,1.8731188639521203,-2.3095020901597803
578,AL-Retaj Language School,0,Mokattam,1,18000,30.0163466,31.2804433,-0.5339365007487479,-0.3543123689057108,0.3238041278267177
579,Al Retaj International School,1,Nasr City,1,57000,30.0521177,31.3422045,0.3138637918271947,-0.2794639427027482,0.4283570882818516
580,Virginia International School,0,Mokattam,0,31300,30.0163466,31.2804433,-0.244814862511311,-0.3543123689057108,0.3238041278267177
581,Elkholafaa Elrashedeen,0,Maadi,1,12000,29.95891452548896,31.2605343965376,-0.6643673149912006,-0.4744848095273931,0.2901011752220159
582,City Language School,0,October,1,27913,31.08086685,29.724904831435097,-0.3184430571511756,1.8731188639521203,-2.3095020901597803
583,Ecole Franco City,0,October,1,26500,31.08086685,29.724904831435097,-0.3491595139052732,1.8731188639521203,-2.3095020901597803
584,Badr Tigers' Modern Language Schools,0,October,1,32500,31.08086685,29.724904831435097,-0.2187286996628205,1.8731188639521203,-2.3095020901597803
585,El-Khalil Language School (KLS),0,October,1,29500,31.08086685,29.724904831435097,-0.2839441067840468,1.8731188639521203,-2.3095020901597803
586,Anglo American School,0,October,1,35000,31.08086685,29.724904831435097,-0.1643825270617985,1.8731188639521203,-2.3095020901597803
587,Royal International Language Schools,0,October,0,30500,31.08086685,29.724904831435097,-0.2622056377436381,1.8731188639521203,-2.3095020901597803
588,Sheraton Heliopolis Language Schools,0,Sheraton,0,22760,30.10062255,31.37713650062093,-0.430461388116402,-0.1779710703641664,0.4874920157045581
589,Own Heliopolis Language School,0,Sheraton,1,14507,30.10062255,31.37713650062093,-0.6098689731068957,-0.1779710703641664,0.4874920157045581
590,Pioneers Language School,0,October,0,20000,31.08086685,29.724904831435097,-0.4904595626679303,1.8731188639521203,-2.3095020901597803
591,Masters Language School,0,October,1,38500,31.08086685,29.724904831435097,-0.0882978854203678,1.8731188639521203,-2.3095020901597803
592,Solaimaneyah International School,1,October,1,63800,31.08086685,29.724904831435097,0.4616853813019744,1.8731188639521203,-2.3095020901597803
593,Patriarchal College Heliopolis,0,Heliopolis,1,28000,30.0901239,31.326542634536956,-0.31655181034466,-0.1999387322408102,0.4018437692334563
